{
    "links": {
        "self": "http://www.neowsapp.com/rest/v1/neo/3840792?api_key=iIulBulltgU6a56xZRHN4H3l9WmuAYTsLGpBGhQ2"
    },
    "id": "3840792",
    "neo_reference_id": "3840792",
    "name": "(2019 GO1)",
    "designation": "2019 GO1",
    "nasa_jpl_url": "http://ssd.jpl.nasa.gov/sbdb.cgi?sstr=3840792",
    "absolute_magnitude_h": 25.4,
    "estimated_diameter": {
        "kilometers": {
            "estimated_diameter_min": 0.022108281,
            "estimated_diameter_max": 0.0494356193
        },
        "meters": {
            "estimated_diameter_min": 22.1082810359,
            "estimated_diameter_max": 49.435619262
        },
        "miles": {
            "estimated_diameter_min": 0.0137374447,
            "estimated_diameter_max": 0.0307178602
        },
        "feet": {
            "estimated_diameter_min": 72.5337327539,
            "estimated_diameter_max": 162.1903570994
        }
    },
    "is_potentially_hazardous_asteroid": false,
    "close_approach_data": [
        {
            "close_approach_date": "2019-04-07",
            "close_approach_date_full": "2019-Apr-07 17:03",
            "epoch_date_close_approach": 1554656580000,
            "relative_velocity": {
                "kilometers_per_second": "8.1671992564",
                "kilometers_per_hour": "29401.9173229",
                "miles_per_hour": "18269.2080165542"
            },
            "miss_distance": {
                "astronomical": "0.1452476914",
                "lunar": "56.5013519546",
                "kilometers": "21728745.255857318",
                "miles": "13501616.2237262684"
            },
            "orbiting_body": "Earth"
        }
    ],
    "orbital_data": {
        "orbit_id": "2",
        "orbit_determination_date": "2019-04-08 06:28:16",
        "first_observation_date": "2019-04-03",
        "last_observation_date": "2019-04-08",
        "data_arc_in_days": 5,
        "observations_used": 15,
        "orbit_uncertainty": "8",
        "minimum_orbit_intersection": ".145128",
        "jupiter_tisserand_invariant": "4.550",
        "epoch_osculation": "2458577.5",
        "eccentricity": ".2188182311700078",
        "semi_major_axis": "1.465249969513584",
        "inclination": "15.36284453395218",
        "ascending_node_longitude": "194.157173983583",
        "orbital_period": "647.8373879849639",
        "perihelion_distance": "1.144626562962714",
        "perihelion_argument": "7.771354954792688",
        "aphelion_distance": "1.785873376064455",
        "perihelion_time": "2458586.709260422662",
        "mean_anomaly": "354.8824599912791",
        "mean_motion": ".5556950041425449",
        "equinox": "J2000",
        "orbit_class": {
            "orbit_class_type": "AMO",
            "orbit_class_description": "Near-Earth asteroid orbits similar to that of 1221 Amor",
            "orbit_class_range": "1.017 AU < q (perihelion) < 1.3 AU"
        }
    },
    "is_sentry_object": false
}